PROX-1                  
1 44339U 19036A   26189.40803138  .00007901  00000+0  74861-3 0  9990
2 44339  23.9962 332.4428 0005402 288.2711  71.7201 14.91148060376640
NPSAT1                  
1 44340U 19036B   26189.36504690  .00003342  00000+0  45203-3 0  9991
2 44340  23.9988  79.8058 0007601  90.8831 269.2536 14.74780899375629
FORMOSAT 7-3            
1 44343U 19036E   26189.26507273  .00003061  00000+0  16301-3 0  9998
2 44343  24.0001  33.4537 0000735 136.3401 223.7161 15.09959264386431
FORMOSAT 7-1            
1 44349U 19036L   26189.24974381  .00001632  00000+0  11390-3 0  9995
2 44349  23.9976 250.3899 0001137  73.6419 286.4207 14.96596721387816
FORMOSAT 7-4            
1 44350U 19036M   26189.40567018  .00001841  00000+0  13180-3 0  9991
2 44350  23.9993 311.4458 0001562  79.5122 280.5555 14.96593744387256
FORMOSAT 7-2            
1 44351U 19036N   26189.56137662  .00001970  00000+0  14294-3 0  9997
2 44351  24.0000   4.7090 0000972  72.6270 287.4337 14.96592118386790
FORMOSAT 7-6            
1 44353U 19036Q   26189.29427947  .00001640  00000+0  11459-3 0  9991
2 44353  23.9965 187.3218 0001010   7.4831 352.5685 14.96595512384983
FORMOSAT 7-5            
1 44358U 19036V   26189.00493220  .00001740  00000+0  12323-3 0  9994
2 44358  23.9975 128.0209 0000667  98.7981 261.2595 14.96572751385478
METEOR-M2 2             
1 44387U 19038A   26189.59946233  .00000004  00000+0  21469-4 0  9993
2 44387  98.9160 177.2017 0001126  15.9426 344.1787 14.24371312364345
GLOBAL-4                
1 44499U 19054E   26188.94504606  .00037372  00000+0  35230-3 0  9995
2 44499  45.0043 116.4508 0004325 145.7131 214.4047 15.66458654383612
ZY-1 02D                
1 44528U 19059A   26189.60921601  .00000258  00000+0  10592-3 0  9992
2 44528  98.6710 251.1333 0003433 324.5560  35.5396 14.35268147357414
TAURUS-1 (JINNIUZUO 1)  
1 44530U 19059C   26189.58395885  .00002522  00000+0  40747-3 0  9992
2 44530  98.6437 355.7447 0007615 238.1357 121.9108 14.72325868361792
ZHUHAI-1 03B            
1 44536U 19060C   26189.61647560  .00023463  00000+0  34620-3 0  9994
2 44536  97.5548 348.5608 0008031 230.9231 129.1309 15.55343831379651
ZHUHAI-1 03D            
1 44538U 19060E   26189.52296264  .00023172  00000+0  39931-3 0  9994
2 44538  97.5394 340.3970 0007087 216.2547 143.8225 15.51039323379385
ZHUHAI-1 03E            
1 44539U 19060F   26189.60152251  .00011699  00000+0  27852-3 0  9991
2 44539  97.5633 340.3052 0004484 307.3253  52.7584 15.41770412379068
GAOFEN-7                
1 44703U 19072A   26189.04924981  .00004340  00000+0  19533-3 0  9994
2 44703  97.4253 249.7489 0017871 330.6432  29.3798 15.21484892370819
JILIN-1 GAOFEN 2A       
1 44777U 19075A   26189.51826385  .00010454  00000+0  26492-3 0  9994
2 44777  97.4959 273.8145 0005848  19.8252 340.3220 15.39892286368167
NINGXIA-1 1             
1 44779U 19076A   26189.55888801 -.00000066  00000+0  41419-4 0  9998
2 44779  45.0061  84.3451 0011633 260.6777  99.2741 14.02041357340852
NINGXIA-1 5             
1 44783U 19076E   26189.57144481  .00000061  00000+0  12358-3 0  9997
2 44783  45.0055  83.6228 0011339 251.8594 108.1006 14.02089980340775
KL-ALPHA A              
1 44785U 19077A   26189.59251949  .00000120  00000+0  15318-3 0  9995
2 44785  88.9237 220.2239 0012899  53.5991 306.6351 13.56045449328635
CARTOSAT-3              
1 44804U 19081A   26189.56295521  .00002607  00000+0  12653-3 0  9994
2 44804  97.4294 251.0848 0013376  81.6250 278.6501 15.19295264366713
JILIN-1 GAOFEN 2B       
1 44836U 19086A   26189.53083017  .00004068  00000+0  18654-3 0  9996
2 44836  97.4872 261.3901 0012737 240.9900 119.0060 15.20951138363734
TIANQIN 1 (CAS-6)       
1 44879U 19093A   26189.56713009  .00001865  00000+0  17336-3 0  9993
2 44879  97.7794 273.2538 0010670 348.8286  11.2697 14.95537336355241
ETRSS-1                 
1 44880U 19093B   26189.56767920  .00002318  00000+0  21182-3 0  9994
2 44880  97.7810 273.7329 0010746 349.0883  11.0103 14.95983338355253
TIANYAN 01              
1 44881U 19093C   26189.51721638  .00000339  00000+0  44281-4 0  9993
2 44881  97.7521 261.2292 0014180  23.0504 337.1345 14.86554981354582
TIANYAN 02              
1 44882U 19093D   26189.52324374  .00003755  00000+0  26526-3 0  9997
2 44882  97.7940 284.5218 0012172 314.6455  45.3778 15.05486555355826
CBERS 4A                
1 44883U 19093E   26189.56866865  .00001130  00000+0  15116-3 0  9996
2 44883  98.0180 257.0269 0001053 132.6844 227.4458 14.81440080354243
WEILAI 1R               
1 44884U 19093F   26189.52408933  .00003180  00000+0  25442-3 0  9991
2 44884  97.7873 279.4474 0016432 330.7141  29.3160 15.00831337355626
