OBJECT_NAME,OBJECT_ID,EPOCH,MEAN_MOTION,ECCENTRICITY,INCLINATION,RA_OF_ASC_NODE,ARG_OF_PERICENTER,MEAN_ANOMALY,EPHEMERIS_TYPE,CLASSIFICATION_TYPE,NORAD_CAT_ID,ELEMENT_SET_NO,REV_AT_EPOCH,BSTAR,MEAN_MOTION_DOT,MEAN_MOTION_DDOT
PROX-1,2019-036A,2026-07-08T09:47:33.911232,14.91148060,.00054021,23.9962,332.4428,288.2711,71.7201,0,U,44339,999,37664,.74861164E-3,.7901E-4,0
NPSAT1,2019-036B,2026-07-08T08:45:40.052160,14.74780899,.00076018,23.9988,79.8058,90.8831,269.2536,0,U,44340,999,37562,.45203067E-3,.3342E-4,0
FORMOSAT 7-3,2019-036E,2026-07-08T06:21:42.283872,15.09959264,.00007358,24.0001,33.4537,136.3401,223.7161,0,U,44343,999,38643,.16300895E-3,.3061E-4,0
FORMOSAT 7-1,2019-036L,2026-07-08T05:59:37.865184,14.96596721,.00011375,23.9976,250.3899,73.6419,286.4207,0,U,44349,999,38781,.11390258E-3,.1632E-4,0
FORMOSAT 7-4,2019-036M,2026-07-08T09:44:09.903552,14.96593744,.0001562,23.9993,311.4458,79.5122,280.5555,0,U,44350,999,38725,.13179772E-3,.1841E-4,0
FORMOSAT 7-2,2019-036N,2026-07-08T13:28:22.939968,14.96592118,.00009728,24.0000,4.7090,72.6270,287.4337,0,U,44351,999,38679,.14293718E-3,.197E-4,0
FORMOSAT 7-6,2019-036Q,2026-07-08T07:03:45.746208,14.96595512,.00010107,23.9965,187.3218,7.4831,352.5685,0,U,44353,999,38498,.11458683E-3,.164E-4,0
FORMOSAT 7-5,2019-036V,2026-07-08T00:07:06.142080,14.96572751,.00006678,23.9975,128.0209,98.7981,261.2595,0,U,44358,999,38547,.12323452E-3,.174E-4,0
METEOR-M2 2,2019-038A,2026-07-08T14:23:13.545312,14.24371312,.00011269,98.9160,177.2017,15.9426,344.1787,0,U,44387,999,36434,.21468917E-4,.4E-7,0
GLOBAL-4,2019-054E,2026-07-07T22:40:51.979584,15.66458654,.00043252,45.0043,116.4508,145.7131,214.4047,0,U,44499,999,38361,.3522962E-3,.37372E-3,0
ZY-1 02D,2019-059A,2026-07-08T14:37:16.263264,14.35268147,.00034334,98.6710,251.1333,324.5560,35.5396,0,U,44528,999,35741,.10592425E-3,.258E-5,0
TAURUS-1 (JINNIUZUO 1),2019-059C,2026-07-08T14:00:54.044640,14.72325868,.00076152,98.6437,355.7447,238.1357,121.9108,0,U,44530,999,36179,.40747457E-3,.2522E-4,0
ZHUHAI-1 03B,2019-060C,2026-07-08T14:47:43.491840,15.55343831,.00080316,97.5548,348.5608,230.9231,129.1309,0,U,44536,999,37965,.34620374E-3,.23463E-3,0
ZHUHAI-1 03D,2019-060E,2026-07-08T12:33:03.972096,15.51039323,.00070875,97.5394,340.3970,216.2547,143.8225,0,U,44538,999,37938,.39930824E-3,.23172E-3,0
ZHUHAI-1 03E,2019-060F,2026-07-08T14:26:11.544864,15.41770412,.00044844,97.5633,340.3052,307.3253,52.7584,0,U,44539,999,37906,.27851638E-3,.11699E-3,0
GAOFEN-7,2019-072A,2026-07-08T01:10:55.183584,15.21484892,.00178716,97.4253,249.7489,330.6432,29.3798,0,U,44703,999,37081,.19533172E-3,.434E-4,0
JILIN-1 GAOFEN 2A,2019-075A,2026-07-08T12:26:17.996640,15.39892286,.00058486,97.4959,273.8145,19.8252,340.3220,0,U,44777,999,36816,.26492196E-3,.10454E-3,0
NINGXIA-1 1,2019-076A,2026-07-08T13:24:47.924064,14.02041357,.00116335,45.0061,84.3451,260.6777,99.2741,0,U,44779,999,34085,.41418959E-4,-.66E-6,0
NINGXIA-1 5,2019-076E,2026-07-08T13:42:52.831584,14.02089980,.00113393,45.0055,83.6228,251.8594,108.1006,0,U,44783,999,34077,.12358415E-3,.61E-6,0
KL-ALPHA A,2019-077A,2026-07-08T14:13:13.683936,13.56045449,.00128992,88.9237,220.2239,53.5991,306.6351,0,U,44785,999,32863,.15317862E-3,.12E-5,0
CARTOSAT-3,2019-081A,2026-07-08T13:30:39.330144,15.19295264,.00133768,97.4294,251.0848,81.6250,278.6501,0,U,44804,999,36671,.12653238E-3,.2607E-4,0
JILIN-1 GAOFEN 2B,2019-086A,2026-07-08T12:44:23.726688,15.20951138,.00127377,97.4872,261.3901,240.9900,119.0060,0,U,44836,999,36373,.18654438E-3,.4068E-4,0
TIANQIN 1 (CAS-6),2019-093A,2026-07-08T13:36:40.039776,14.95537336,.001067,97.7794,273.2538,348.8286,11.2697,0,U,44879,999,35524,.17335523E-3,.1865E-4,0
ETRSS-1,2019-093B,2026-07-08T13:37:27.482880,14.95983338,.00107461,97.7810,273.7329,349.0883,11.0103,0,U,44880,999,35525,.21182097E-3,.2318E-4,0
TIANYAN 01,2019-093C,2026-07-08T12:24:47.495232,14.86554981,.00141807,97.7521,261.2292,23.0504,337.1345,0,U,44881,999,35458,.44280528E-4,.339E-5,0
TIANYAN 02,2019-093D,2026-07-08T12:33:28.259136,15.05486555,.00121727,97.7940,284.5218,314.6455,45.3778,0,U,44882,999,35582,.2652609E-3,.3755E-4,0
CBERS 4A,2019-093E,2026-07-08T13:38:52.971360,14.81440080,.0001053,98.0180,257.0269,132.6844,227.4458,0,U,44883,999,35424,.15116425E-3,.113E-4,0
WEILAI 1R,2019-093F,2026-07-08T12:34:41.318112,15.00831337,.00164325,97.7873,279.4474,330.7141,29.3160,0,U,44884,999,35562,.25441931E-3,.318E-4,0
